[{"OBJECT_NAME":"ISS OBJECT XW","OBJECT_ID":"1998-067XW","EPOCH":"2026-03-09T06:13:06.169152","MEAN_MOTION":15.68462358,"ECCENTRICITY":0.00051435,"INCLINATION":51.6252,"RA_OF_ASC_NODE":67.7624,"ARG_OF_PERICENTER":83.073,"MEAN_ANOMALY":277.0851,"EPHEMERIS_TYPE":0,"CLASSIFICATION_TYPE":"U","NORAD_CAT_ID":66910,"ELEMENT_SET_NO":999,"REV_AT_EPOCH":1511,"BSTAR":0.0012539699,"MEAN_MOTION_DOT":0.00146604,"MEAN_MOTION_DDOT":0},{"OBJECT_NAME":"STARLINK-36994","OBJECT_ID":"2026-039M","EPOCH":"2026-03-09T22:00:01.999584","MEAN_MOTION":15.84295211,"ECCENTRICITY":0.00017133,"INCLINATION":42.9983,"RA_OF_ASC_NODE":53.4216,"ARG_OF_PERICENTER":254.5131,"MEAN_ANOMALY":53.6492,"EPHEMERIS_TYPE":0,"CLASSIFICATION_TYPE":"U","NORAD_CAT_ID":67997,"ELEMENT_SET_NO":999,"REV_AT_EPOCH":291,"BSTAR":-0.0076312815,"MEAN_MOTION_DOT":-0.0157165,"MEAN_MOTION_DDOT":0}]
